start=new Date('2022-03-13T00:00:00.000Z').valueOf();
sats=[{"ECCENTRICITY":"0.00012590","CENTER_NAME":"EARTH","EPOCH":"2022-03-12T18:10:43.670496","NORAD_CAT_ID":"44754","APOAPSIS":"548.036","MEAN_MOTION_DDOT":"0.0000000000000","REV_AT_EPOCH":"12900","SITE":"AFETR","BSTAR":"0.00024385000000","MEAN_MOTION_DOT":"0.00003354","OBJECT_NAME":"STARLINK-1049","SEMIMAJOR_AXIS":"6925.299","FILE":"3356931","ELEMENT_SET_NO":"999","REF_FRAME":"TEME","PERIOD":"95.591","ARG_OF_PERICENTER":"76.1778","OBJECT_ID":"2019-074AT","MEAN_MOTION":"15.06416177","MEAN_ANOMALY":"283.9351","EPHEMERIS_TYPE":"0","MEAN_ELEMENT_THEORY":"SGP4","GP_ID":"198602608","DECAY_DATE":null,"TIME_SYSTEM":"UTC","TLE_LINE1":"1 44754U 19074AT  22071.75744989  .00003354  00000-0  24385-3 0  9990","INCLINATION":"53.0537","COUNTRY_CODE":"US","OBJECT_TYPE":"PAYLOAD","CLASSIFICATION_TYPE":"U","TLE_LINE2":"2 44754  53.0537 251.5420 0001259  76.1778 283.9351 15.06416177129002","PERIAPSIS":"546.292","LAUNCH_DATE":"2019-11-11","RCS_SIZE":"LARGE","RA_OF_ASC_NODE":"251.5420"},{"GP_ID":"198603360","MEAN_ELEMENT_THEORY":"SGP4","EPHEMERIS_TYPE":"0","MEAN_ANOMALY":"110.8786","MEAN_MOTION":"15.89396993","PERIAPSIS":"303.515","TLE_LINE2":"2 44755  53.0429 264.9272 0000688 249.2165 110.8786 15.89396993129378","CLASSIFICATION_TYPE":"U","RA_OF_ASC_NODE":"264.9272","RCS_SIZE":"LARGE","LAUNCH_DATE":"2019-11-11","TIME_SYSTEM":"UTC","DECAY_DATE":null,"OBJECT_TYPE":"PAYLOAD","COUNTRY_CODE":"US","INCLINATION":"53.0429","TLE_LINE1":"1 44755U 19074AU  22071.83377409  .00138728  00000-0  46139-3 0  9994","MEAN_MOTION_DDOT":"0.0000000000000","APOAPSIS":"304.434","BSTAR":"0.00046139000000","SITE":"AFETR","REV_AT_EPOCH":"12937","ECCENTRICITY":"0.00006880","CENTER_NAME":"EARTH","NORAD_CAT_ID":"44755","EPOCH":"2022-03-12T20:00:38.081376","PERIOD":"90.600","REF_FRAME":"TEME","ELEMENT_SET_NO":"999","ARG_OF_PERICENTER":"249.2165","OBJECT_ID":"2019-074AU","MEAN_MOTION_DOT":"0.00138728","SEMIMAJOR_AXIS":"6682.109","FILE":"3356931","OBJECT_NAME":"STARLINK-1050"},{"FILE":"3356931","SEMIMAJOR_AXIS":"6925.432","OBJECT_NAME":"STARLINK-1052","MEAN_MOTION_DOT":"0.00005974","OBJECT_ID":"2019-074AW","ARG_OF_PERICENTER":"78.1996","PERIOD":"95.594","ELEMENT_SET_NO":"999","REF_FRAME":"TEME","NORAD_CAT_ID":"44757","EPOCH":"2022-03-12T19:48:56.286144","ECCENTRICITY":"0.00015420","CENTER_NAME":"EARTH","BSTAR":"0.00041994000000","SITE":"AFETR","REV_AT_EPOCH":"12873","MEAN_MOTION_DDOT":"0.0000000000000","APOAPSIS":"548.365","OBJECT_TYPE":"PAYLOAD","COUNTRY_CODE":"US","INCLINATION":"53.0540","TLE_LINE1":"1 44757U 19074AW  22071.82565146  .00005974  00000-0  41994-3 0  9992","TIME_SYSTEM":"UTC","DECAY_DATE":null,"RA_OF_ASC_NODE":"271.2293","RCS_SIZE":"LARGE","LAUNCH_DATE":"2019-11-11","PERIAPSIS":"546.229","TLE_LINE2":"2 44757  53.0540 271.2293 0001542  78.1996 281.9166 15.06372690128737","CLASSIFICATION_TYPE":"U","MEAN_ANOMALY":"281.9166","MEAN_MOTION":"15.06372690","GP_ID":"198603110","MEAN_ELEMENT_THEORY":"SGP4","EPHEMERIS_TYPE":"0"},{"ECCENTRICITY":"0.00017110","CENTER_NAME":"EARTH","NORAD_CAT_ID":"44758","EPOCH":"2022-03-12T21:36:21.715776","APOAPSIS":"548.359","MEAN_MOTION_DDOT":"0.0000000000000","SITE":"AFETR","REV_AT_EPOCH":"12847","BSTAR":"0.00005131900000","MEAN_MOTION_DOT":"0.00000483","OBJECT_NAME":"STARLINK-1053","FILE":"3356931","SEMIMAJOR_AXIS":"6925.309","ELEMENT_SET_NO":"999","REF_FRAME":"TEME","PERIOD":"95.591","ARG_OF_PERICENTER":"66.4600","OBJECT_ID":"2019-074AX","MEAN_ANOMALY":"293.6569","MEAN_MOTION":"15.06412892","EPHEMERIS_TYPE":"0","GP_ID":"198601858","MEAN_ELEMENT_THEORY":"SGP4","DECAY_DATE":null,"TIME_SYSTEM":"UTC","TLE_LINE1":"1 44758U 19074AX  22071.90025134  .00000483  00000-0  51319-4 0  9993","OBJECT_TYPE":"PAYLOAD","COUNTRY_CODE":"US","INCLINATION":"53.0557","TLE_LINE2":"2 44758  53.0557 290.8946 0001711  66.4600 293.6569 15.06412892128475","CLASSIFICATION_TYPE":"U","PERIAPSIS":"545.989","LAUNCH_DATE":"2019-11-11","RA_OF_ASC_NODE":"290.8946","RCS_SIZE":"LARGE"},{"CENTER_NAME":"EARTH","ECCENTRICITY":"0.00014580","EPOCH":"2022-03-12T21:21:48.168576","NORAD_CAT_ID":"44759","APOAPSIS":"548.213","MEAN_MOTION_DDOT":"0.0000000000000","REV_AT_EPOCH":"12611","SITE":"AFETR","BSTAR":"0.00002235300000","MEAN_MOTION_DOT":"0.00000051","OBJECT_NAME":"STARLINK-1054","SEMIMAJOR_AXIS":"6925.339","FILE":"3356931","ELEMENT_SET_NO":"999","REF_FRAME":"TEME","PERIOD":"95.592","ARG_OF_PERICENTER":"62.0482","OBJECT_ID":"2019-074AY","MEAN_MOTION":"15.06403198","MEAN_ANOMALY":"298.0654","EPHEMERIS_TYPE":"0","GP_ID":"198602108","MEAN_ELEMENT_THEORY":"SGP4","DECAY_DATE":null,"TIME_SYSTEM":"UTC","TLE_LINE1":"1 44759U 19074AY  22071.89014084  .00000051  00000-0  22353-4 0  9991","COUNTRY_CODE":"US","INCLINATION":"53.0532","OBJECT_TYPE":"PAYLOAD","CLASSIFICATION_TYPE":"U","TLE_LINE2":"2 44759  53.0532 290.9461 0001458  62.0482 298.0654 15.06403198126112","PERIAPSIS":"546.194","LAUNCH_DATE":"2019-11-11","RCS_SIZE":"LARGE","RA_OF_ASC_NODE":"290.9461"},{"ARG_OF_PERICENTER":"52.9672","OBJECT_ID":"2019-074AZ","ELEMENT_SET_NO":"999","REF_FRAME":"TEME","PERIOD":"95.591","OBJECT_NAME":"STARLINK-1055","SEMIMAJOR_AXIS":"6925.314","FILE":"3356931","MEAN_MOTION_DOT":"0.00000129","SITE":"AFETR","REV_AT_EPOCH":"12847","BSTAR":"0.00002754100000","APOAPSIS":"548.379","MEAN_MOTION_DDOT":"0.0000000000000","NORAD_CAT_ID":"44760","EPOCH":"2022-03-12T21:00:34.927200","CENTER_NAME":"EARTH","ECCENTRICITY":"0.00017320","LAUNCH_DATE":"2019-11-11","RA_OF_ASC_NODE":"290.9967","RCS_SIZE":"LARGE","TLE_LINE2":"2 44760  53.0538 290.9967 0001732  52.9672 307.1475 15.06411250128477","CLASSIFICATION_TYPE":"U","PERIAPSIS":"545.980","TLE_LINE1":"1 44760U 19074AZ  22071.87540425  .00000129  00000-0  27541-4 0  9994","OBJECT_TYPE":"PAYLOAD","INCLINATION":"53.0538","COUNTRY_CODE":"US","DECAY_DATE":null,"TIME_SYSTEM":"UTC","EPHEMERIS_TYPE":"0","GP_ID":"198602860","MEAN_ELEMENT_THEORY":"SGP4","MEAN_ANOMALY":"307.1475","MEAN_MOTION":"15.06411250"},{"APOAPSIS":"548.502","MEAN_MOTION_DDOT":"0.0000000000000","SITE":"AFETR","REV_AT_EPOCH":"12847","BSTAR":"-0.00004447200000","CENTER_NAME":"EARTH","ECCENTRICITY":"0.00019100","NORAD_CAT_ID":"44761","EPOCH":"2022-03-12T21:16:30.414432","ELEMENT_SET_NO":"999","REF_FRAME":"TEME","PERIOD":"95.591","ARG_OF_PERICENTER":"63.1054","OBJECT_ID":"2019-074BA","MEAN_MOTION_DOT":"-0.00000944","OBJECT_NAME":"STARLINK-1056","SEMIMAJOR_AXIS":"6925.314","FILE":"3356931","EPHEMERIS_TYPE":"0","MEAN_ELEMENT_THEORY":"SGP4","GP_ID":"198603611","MEAN_ANOMALY":"297.0130","MEAN_MOTION":"15.06411311","TLE_LINE2":"2 44761  53.0542 290.9513 0001910  63.1054 297.0130 15.06411311128479","CLASSIFICATION_TYPE":"U","PERIAPSIS":"545.856","LAUNCH_DATE":"2019-11-11","RA_OF_ASC_NODE":"290.9513","RCS_SIZE":"LARGE","DECAY_DATE":null,"TIME_SYSTEM":"UTC","TLE_LINE1":"1 44761U 19074BA  22071.88646313 -.00000944  00000-0 -44472-4 0  9998","OBJECT_TYPE":"PAYLOAD","COUNTRY_CODE":"US","INCLINATION":"53.0542"},{"SITE":"AFETR","REV_AT_EPOCH":"12874","BSTAR":"0.00057472000000","APOAPSIS":"548.237","MEAN_MOTION_DDOT":"0.0000000000000","NORAD_CAT_ID":"44762","EPOCH":"2022-03-12T21:19:09.186528","CENTER_NAME":"EARTH","ECCENTRICITY":"0.00015690","OBJECT_ID":"2019-074BB","ARG_OF_PERICENTER":"61.7919","ELEMENT_SET_NO":"999","REF_FRAME":"TEME","PERIOD":"95.591","OBJECT_NAME":"STARLINK-1057","FILE":"3356931","SEMIMAJOR_AXIS":"6925.286","MEAN_MOTION_DOT":"0.00008294","EPHEMERIS_TYPE":"0","MEAN_ELEMENT_THEORY":"SGP4","GP_ID":"198602359","MEAN_ANOMALY":"298.3228","MEAN_MOTION":"15.06420490","LAUNCH_DATE":"2019-11-11","RA_OF_ASC_NODE":"270.9297","RCS_SIZE":"LARGE","TLE_LINE2":"2 44762  53.0526 270.9297 0001569  61.7919 298.3228 15.06420490128743","CLASSIFICATION_TYPE":"U","PERIAPSIS":"546.064","TLE_LINE1":"1 44762U 19074BB  22071.88830077  .00008294  00000-0  57472-3 0  9998","OBJECT_TYPE":"PAYLOAD","COUNTRY_CODE":"US","INCLINATION":"53.0526","DECAY_DATE":null,"TIME_SYSTEM":"UTC"},{"OBJECT_ID":"2019-074BC","ARG_OF_PERICENTER":"61.5052","ELEMENT_SET_NO":"999","REF_FRAME":"TEME","PERIOD":"95.592","OBJECT_NAME":"STARLINK-1058","FILE":"3356931","SEMIMAJOR_AXIS":"6925.361","MEAN_MOTION_DOT":"0.00000028","REV_AT_EPOCH":"12847","SITE":"AFETR","BSTAR":"0.00002081800000","APOAPSIS":"548.456","MEAN_MOTION_DDOT":"0.0000000000000","EPOCH":"2022-03-12T21:48:21.652416","NORAD_CAT_ID":"44763","ECCENTRICITY":"0.00017770","CENTER_NAME":"EARTH","LAUNCH_DATE":"2019-11-11","RCS_SIZE":"LARGE","RA_OF_ASC_NODE":"290.8656","CLASSIFICATION_TYPE":"U","TLE_LINE2":"2 44763  53.0558 290.8656 0001777  61.5052 298.6115 15.06395999128479","PERIAPSIS":"545.995","TLE_LINE1":"1 44763U 19074BC  22071.90858394  .00000028  00000-0  20818-4 0  9996","COUNTRY_CODE":"US","INCLINATION":"53.0558","OBJECT_TYPE":"PAYLOAD","DECAY_DATE":null,"TIME_SYSTEM":"UTC","EPHEMERIS_TYPE":"0","MEAN_ELEMENT_THEORY":"SGP4","GP_ID":"198602609","MEAN_MOTION":"15.06395999","MEAN_ANOMALY":"298.6115"},{"MEAN_ANOMALY":"298.0695","MEAN_MOTION":"15.06405353","MEAN_ELEMENT_THEORY":"SGP4","GP_ID":"198603361","EPHEMERIS_TYPE":"0","TIME_SYSTEM":"UTC","DECAY_DATE":null,"OBJECT_TYPE":"PAYLOAD","COUNTRY_CODE":"US","INCLINATION":"53.0544","TLE_LINE1":"1 44764U 19074BD  22071.81827260 -.00000231  00000-0  33945-5 0  9998","PERIAPSIS":"546.034","TLE_LINE2":"2 44764  53.0544 271.2623 0001680  62.0463 298.0695 15.06405353128739","CLASSIFICATION_TYPE":"U","RA_OF_ASC_NODE":"271.2623","RCS_SIZE":"LARGE","LAUNCH_DATE":"2019-11-11","CENTER_NAME":"EARTH","ECCENTRICITY":"0.00016800","NORAD_CAT_ID":"44764","EPOCH":"2022-03-12T19:38:18.752640","MEAN_MOTION_DDOT":"0.0000000000000","APOAPSIS":"548.361","BSTAR":"0.00000339450000","SITE":"AFETR","REV_AT_EPOCH":"12873","MEAN_MOTION_DOT":"-0.00000231","SEMIMAJOR_AXIS":"6925.332","FILE":"3356931","OBJECT_NAME":"STARLINK-1059","PERIOD":"95.592","ELEMENT_SET_NO":"999","REF_FRAME":"TEME","ARG_OF_PERICENTER":"62.0463","OBJECT_ID":"2019-074BD"}];
